[{"OBJECT_NAME":"KUIPER-00117","OBJECT_ID":"2025-228C","EPOCH":"2026-03-09T05:24:28.080864","MEAN_MOTION":14.79927968,"ECCENTRICITY":7.633e-5,"INCLINATION":51.8987,"RA_OF_ASC_NODE":0.1497,"ARG_OF_PERICENTER":80.7222,"MEAN_ANOMALY":279.3826,"EPHEMERIS_TYPE":0,"CLASSIFICATION_TYPE":"U","NORAD_CAT_ID":65949,"ELEMENT_SET_NO":999,"REV_AT_EPOCH":2319,"BSTAR":0.00013496611,"MEAN_MOTION_DOT":8.08e-6,"MEAN_MOTION_DDOT":0},{"OBJECT_NAME":"CZ-6A DEB","OBJECT_ID":"2022-151AHG","EPOCH":"2026-03-08T15:27:45.834336","MEAN_MOTION":14.62453774,"ECCENTRICITY":0.0082525,"INCLINATION":98.6212,"RA_OF_ASC_NODE":124.5714,"ARG_OF_PERICENTER":243.6794,"MEAN_ANOMALY":115.5912,"EPHEMERIS_TYPE":0,"CLASSIFICATION_TYPE":"U","NORAD_CAT_ID":56680,"ELEMENT_SET_NO":999,"REV_AT_EPOCH":15623,"BSTAR":0.0024707536,"MEAN_MOTION_DOT":0.00013105,"MEAN_MOTION_DDOT":0}]
